GLOBALSTAR M024         
1 25883U 99043A   25212.60979856 -.00000113  00000+0 -17120-2 0  9992
2 25883  52.0010 280.3938 0001738 172.4731 344.4623 11.10164493119796
GLOBALSTAR M027         
1 25884U 99043B   25212.57565273 -.00000070  00000+0 -24430-3 0  9998
2 25884  52.0245 359.7069 0021968  64.3947 295.9114 11.04371539146146
GLOBALSTAR M054         
1 25885U 99043C   25212.19619378 -.00000099  00000+0 -71768-3 0  9990
2 25885  52.0135 120.4661 0004988 254.1715 262.0130 11.39224544124062
GLOBALSTAR M053         
1 25886U 99043D   25212.56482554 -.00000065  00000+0  11830-3 0  9992
2 25886  51.9989  69.1395 0003296 142.3676 254.7352 11.27666127124457
GLOBALSTAR M058         
1 25907U 99049A   25212.62347817 -.00000092  00000+0 -10164-3 0  9991
2 25907  51.9971 350.5192 0002023  13.5252 346.5636 11.93200969546847
GLOBALSTAR M050         
1 25908U 99049B   25212.58956252 -.00000166  00000+0 -87483-3 0  9996
2 25908  52.0015 354.9675 0009898 118.8467 322.1882 12.07455535153559
GLOBALSTAR M033         
1 25909U 99049C   25212.41729417 -.00000042  00000+0  48175-3 0  9997
2 25909  51.9880 224.2175 0013610 353.3422   6.7243 12.20295058541145
GLOBALSTAR M055         
1 25910U 99049D   25212.48427026 -.00000076  00000+0  15607-3 0  9998
2 25910  51.9990 232.6210 0007131 223.5822 136.4467 12.29430567173735
